SENTINEL-2A             
1 40697U 15028A   26192.20070123 -.00000200  00000+0 -59785-4 0  9998
2 40697  98.5678 266.7107 0001253  96.4327 263.6999 14.30812953577168
SENTINEL-2B             
1 42063U 17013A   26192.19351426 -.00000149  00000+0 -40229-4 0  9994
2 42063  98.5686 266.6285 0001217  90.9498 269.1825 14.30813797488077
SENTINEL-2C             
1 60989U 24157A   26192.15856554  .00000029  00000+0  27780-4 0  9998
2 60989  98.5685 266.6006 0000947  99.1815 260.9475 14.30814932 96412
