{"fetched_at":"2026-07-11T09:24:38.865Z","source":"https://celestrak.org/NORAD/elements/gp.php?NAME=SENTINEL&FORMAT=JSON","constellation":"sentinel-2","records":[{"OBJECT_NAME":"SENTINEL-2A","OBJECT_ID":"2015-028A","EPOCH":"2026-07-11T04:49:00.586272","CLASSIFICATION_TYPE":"U","MEAN_MOTION":14.30812953,"ECCENTRICITY":0.0001253,"INCLINATION":98.5678,"RA_OF_ASC_NODE":266.7107,"ARG_OF_PERICENTER":96.4327,"MEAN_ANOMALY":263.6999,"EPHEMERIS_TYPE":0,"NORAD_CAT_ID":40697,"ELEMENT_SET_NO":999,"REV_AT_EPOCH":57716,"BSTAR":-0.000059785,"MEAN_MOTION_DOT":-0.000002,"MEAN_MOTION_DDOT":0},{"OBJECT_NAME":"SENTINEL-2B","OBJECT_ID":"2017-013A","EPOCH":"2026-07-11T04:38:39.632064","CLASSIFICATION_TYPE":"U","MEAN_MOTION":14.30813797,"ECCENTRICITY":0.0001217,"INCLINATION":98.5686,"RA_OF_ASC_NODE":266.6285,"ARG_OF_PERICENTER":90.9498,"MEAN_ANOMALY":269.1825,"EPHEMERIS_TYPE":0,"NORAD_CAT_ID":42063,"ELEMENT_SET_NO":999,"REV_AT_EPOCH":48807,"BSTAR":-0.000040229,"MEAN_MOTION_DOT":-0.00000149,"MEAN_MOTION_DDOT":0},{"OBJECT_NAME":"SENTINEL-2C","OBJECT_ID":"2024-157A","EPOCH":"2026-07-11T03:48:20.062656","CLASSIFICATION_TYPE":"U","MEAN_MOTION":14.30814932,"ECCENTRICITY":0.0000947,"INCLINATION":98.5685,"RA_OF_ASC_NODE":266.6006,"ARG_OF_PERICENTER":99.1815,"MEAN_ANOMALY":260.9475,"EPHEMERIS_TYPE":0,"NORAD_CAT_ID":60989,"ELEMENT_SET_NO":999,"REV_AT_EPOCH":9641,"BSTAR":0.00002778,"MEAN_MOTION_DOT":2.9e-7,"MEAN_MOTION_DDOT":0}]}
